{
    "links": {
        "self": "http://www.neowsapp.com/rest/v1/neo/3558899?api_key=iIulBulltgU6a56xZRHN4H3l9WmuAYTsLGpBGhQ2"
    },
    "id": "3558899",
    "neo_reference_id": "3558899",
    "name": "(2011 EU20)",
    "designation": "2011 EU20",
    "nasa_jpl_url": "http://ssd.jpl.nasa.gov/sbdb.cgi?sstr=3558899",
    "absolute_magnitude_h": 27.2,
    "estimated_diameter": {
        "kilometers": {
            "estimated_diameter_min": 0.0096506147,
            "estimated_diameter_max": 0.0215794305
        },
        "meters": {
            "estimated_diameter_min": 9.6506146958,
            "estimated_diameter_max": 21.5794304844
        },
        "miles": {
            "estimated_diameter_min": 0.0059966121,
            "estimated_diameter_max": 0.0134088323
        },
        "feet": {
            "estimated_diameter_min": 31.6621227185,
            "estimated_diameter_max": 70.7986587106
        }
    },
    "is_potentially_hazardous_asteroid": false,
    "close_approach_data": [
        {
            "close_approach_date": "2003-02-07",
            "close_approach_date_full": "2003-Feb-07 17:47",
            "epoch_date_close_approach": 1044640020000,
            "relative_velocity": {
                "kilometers_per_second": "21.1923232078",
                "kilometers_per_hour": "76292.3635480692",
                "miles_per_hour": "47405.1077835211"
            },
            "miss_distance": {
                "astronomical": "0.3943388149",
                "lunar": "153.3977989961",
                "kilometers": "58992246.767364263",
                "miles": "36656082.3761143094"
            },
            "orbiting_body": "Earth"
        },
        {
            "close_approach_date": "2011-03-11",
            "close_approach_date_full": "2011-Mar-11 07:40",
            "epoch_date_close_approach": 1299829200000,
            "relative_velocity": {
                "kilometers_per_second": "10.2513266857",
                "kilometers_per_hour": "36904.7760685715",
                "miles_per_hour": "22931.1926632743"
            },
            "miss_distance": {
                "astronomical": "0.0066840546",
                "lunar": "2.6000972394",
                "kilometers": "999920.331123702",
                "miles": "621321.6826910076"
            },
            "orbiting_body": "Moon"
        },
        {
            "close_approach_date": "2011-03-11",
            "close_approach_date_full": "2011-Mar-11 10:26",
            "epoch_date_close_approach": 1299839160000,
            "relative_velocity": {
                "kilometers_per_second": "9.3341353099",
                "kilometers_per_hour": "33602.8871155618",
                "miles_per_hour": "20879.5272746667"
            },
            "miss_distance": {
                "astronomical": "0.0041754764",
                "lunar": "1.6242603196",
                "kilometers": "624642.375675268",
                "miles": "388134.7741959784"
            },
            "orbiting_body": "Earth"
        }
    ],
    "orbital_data": {
        "orbit_id": "12",
        "orbit_determination_date": "2017-04-06 08:54:12",
        "first_observation_date": "2011-03-08",
        "last_observation_date": "2011-03-11",
        "data_arc_in_days": 3,
        "observations_used": 74,
        "orbit_uncertainty": "7",
        "minimum_orbit_intersection": ".000227994",
        "jupiter_tisserand_invariant": "3.778",
        "epoch_osculation": "2459000.5",
        "eccentricity": ".5032075061173121",
        "semi_major_axis": "1.904171863796158",
        "inclination": "1.005474987737786",
        "ascending_node_longitude": "351.1088289899554",
        "orbital_period": "959.7489428372126",
        "perihelion_distance": ".945978288996539",
        "perihelion_argument": "211.9062725254386",
        "aphelion_distance": "2.862365438595777",
        "perihelion_time": "2458537.155760020086",
        "mean_anomaly": "173.7995416797884",
        "mean_motion": ".3750980948577729",
        "equinox": "J2000",
        "orbit_class": {
            "orbit_class_type": "APO",
            "orbit_class_description": "Near-Earth asteroid orbits which cross the Earth’s orbit similar to that of 1862 Apollo",
            "orbit_class_range": "a (semi-major axis) > 1.0 AU; q (perihelion) < 1.017 AU"
        }
    },
    "is_sentry_object": false
}